{
 "generated_at": "2026-07-05T07:57:19Z",
 "sources": [
  {
   "name": "CelesTrak",
   "url": "https://celestrak.org/NORAD/elements/",
   "license": "frei verfügbar; Attribution. Ursprünglich USSPACECOM/Space-Track."
  },
  {
   "name": "GCAT (J. McDowell, planet4589.org)",
   "url": "https://planet4589.org/space/gcat/",
   "license": "CC-BY 4.0"
  }
 ],
 "satellites": [
  {
   "norad": 43226,
   "name": "GOES 17",
   "intl": "2018-022A",
   "group": "weather",
   "gcat": {
    "class": "C",
    "category": "MET",
    "owner": "NOAA",
    "state": "US"
   },
   "omm": {
    "OBJECT_NAME": "GOES 17",
    "OBJECT_ID": "2018-022A",
    "EPOCH": "2026-07-04T13:27:45.381024",
    "MEAN_MOTION": 1.0027117,
    "ECCENTRICITY": 0.00007036,
    "INCLINATION": 0.9785,
    "RA_OF_ASC_NODE": 85.4405,
    "ARG_OF_PERICENTER": 51.4573,
    "MEAN_ANOMALY": 258.1135,
    "EPHEMERIS_TYPE": 0,
    "CLASSIFICATION_TYPE": "U",
    "NORAD_CAT_ID": 43226,
    "ELEMENT_SET_NO": 999,
    "REV_AT_EPOCH": 3059,
    "BSTAR": 0,
    "MEAN_MOTION_DOT": -0.0000017,
    "MEAN_MOTION_DDOT": 0
   }
  },
  {
   "norad": 51850,
   "name": "GOES 18",
   "intl": "2022-021A",
   "group": "weather",
   "gcat": {
    "class": "C",
    "category": "MET",
    "owner": "NOAA",
    "state": "US"
   },
   "omm": {
    "OBJECT_NAME": "GOES 18",
    "OBJECT_ID": "2022-021A",
    "EPOCH": "2026-07-04T12:15:38.875104",
    "MEAN_MOTION": 1.00270988,
    "ECCENTRICITY": 0.0000592,
    "INCLINATION": 0.0415,
    "RA_OF_ASC_NODE": 221.7763,
    "ARG_OF_PERICENTER": 303.1764,
    "MEAN_ANOMALY": 164.4734,
    "EPHEMERIS_TYPE": 0,
    "CLASSIFICATION_TYPE": "U",
    "NORAD_CAT_ID": 51850,
    "ELEMENT_SET_NO": 999,
    "REV_AT_EPOCH": 676,
    "BSTAR": 0,
    "MEAN_MOTION_DOT": 0.00000109,
    "MEAN_MOTION_DDOT": 0
   }
  },
  {
   "norad": 60133,
   "name": "GOES 19",
   "intl": "2024-119A",
   "group": "weather",
   "gcat": {
    "class": "C",
    "category": "MET",
    "owner": "NOAA",
    "state": "US"
   },
   "omm": {
    "OBJECT_NAME": "GOES 19",
    "OBJECT_ID": "2024-119A",
    "EPOCH": "2026-07-04T11:49:10.989120",
    "MEAN_MOTION": 1.00270348,
    "ECCENTRICITY": 0.00005715,
    "INCLINATION": 0.0019,
    "RA_OF_ASC_NODE": 231.4182,
    "ARG_OF_PERICENTER": 297.02,
    "MEAN_ANOMALY": 216.1632,
    "EPHEMERIS_TYPE": 0,
    "CLASSIFICATION_TYPE": "U",
    "NORAD_CAT_ID": 60133,
    "ELEMENT_SET_NO": 999,
    "REV_AT_EPOCH": 713,
    "BSTAR": 0,
    "MEAN_MOTION_DOT": -0.00000236,
    "MEAN_MOTION_DDOT": 0
   }
  },
  {
   "norad": 41875,
   "name": "GOKTURK 1A",
   "intl": "2016-073A",
   "group": "resource",
   "gcat": {
    "class": "D",
    "category": "IMG",
    "owner": "MSBTR",
    "state": "TR"
   },
   "omm": {
    "OBJECT_NAME": "GOKTURK 1A",
    "OBJECT_ID": "2016-073A",
    "EPOCH": "2026-07-04T14:53:12.458976",
    "MEAN_MOTION": 14.6278698,
    "ECCENTRICITY": 0.00013885,
    "INCLINATION": 98.1228,
    "RA_OF_ASC_NODE": 80.0198,
    "ARG_OF_PERICENTER": 79.4982,
    "MEAN_ANOMALY": 280.6376,
    "EPHEMERIS_TYPE": 0,
    "CLASSIFICATION_TYPE": "U",
    "NORAD_CAT_ID": 41875,
    "ELEMENT_SET_NO": 999,
    "REV_AT_EPOCH": 51137,
    "BSTAR": 0.000066553978,
    "MEAN_MOTION_DOT": 0.00000293,
    "MEAN_MOTION_DDOT": 0
   }
  },
  {
   "norad": 39030,
   "name": "GOKTURK 2",
   "intl": "2012-073A",
   "group": "resource",
   "gcat": {
    "class": "D",
    "category": "IMG",
    "owner": "MSBTR",
    "state": "TR"
   },
   "omm": {
    "OBJECT_NAME": "GOKTURK 2",
    "OBJECT_ID": "2012-073A",
    "EPOCH": "2026-07-04T13:50:05.758656",
    "MEAN_MOTION": 14.75560262,
    "ECCENTRICITY": 0.00009502,
    "INCLINATION": 97.6809,
    "RA_OF_ASC_NODE": 22.1352,
    "ARG_OF_PERICENTER": 68.0719,
    "MEAN_ANOMALY": 292.0592,
    "EPHEMERIS_TYPE": 0,
    "CLASSIFICATION_TYPE": "U",
    "NORAD_CAT_ID": 39030,
    "ELEMENT_SET_NO": 999,
    "REV_AT_EPOCH": 72707,
    "BSTAR": 0.000080153013,
    "MEAN_MOTION_DOT": 0.00000499,
    "MEAN_MOTION_DDOT": 0
   }
  },
  {
   "norad": 33492,
   "name": "GOSAT (IBUKI)",
   "intl": "2009-002A",
   "group": "resource",
   "gcat": {
    "class": "C",
    "category": "EOSCI",
    "owner": "JAXA",
    "state": "J"
   },
   "omm": {
    "OBJECT_NAME": "GOSAT (IBUKI)",
    "OBJECT_ID": "2009-002A",
    "EPOCH": "2026-07-04T14:13:54.308352",
    "MEAN_MOTION": 14.67540265,
    "ECCENTRICITY": 0.00012709,
    "INCLINATION": 98.0905,
    "RA_OF_ASC_NODE": 296.4573,
    "ARG_OF_PERICENTER": 82.4342,
    "MEAN_ANOMALY": 277.7007,
    "EPHEMERIS_TYPE": 0,
    "CLASSIFICATION_TYPE": "U",
    "NORAD_CAT_ID": 33492,
    "ELEMENT_SET_NO": 999,
    "REV_AT_EPOCH": 93401,
    "BSTAR": 0.000059651411,
    "MEAN_MOTION_DOT": 0.0000029,
    "MEAN_MOTION_DDOT": 0
   }
  },
  {
   "norad": 64694,
   "name": "GOSAT-GW (IBUKI GW)",
   "intl": "2025-141A",
   "group": "resource",
   "gcat": {
    "class": "C",
    "category": "EOSCI",
    "owner": "JAXA",
    "state": "J"
   },
   "omm": {
    "OBJECT_NAME": "GOSAT-GW (IBUKI GW)",
    "OBJECT_ID": "2025-141A",
    "EPOCH": "2026-07-04T13:50:02.616288",
    "MEAN_MOTION": 14.67559273,
    "ECCENTRICITY": 0.00014453,
    "INCLINATION": 98.0567,
    "RA_OF_ASC_NODE": 122.6109,
    "ARG_OF_PERICENTER": 85.2618,
    "MEAN_ANOMALY": 274.8752,
    "EPHEMERIS_TYPE": 0,
    "CLASSIFICATION_TYPE": "U",
    "NORAD_CAT_ID": 64694,
    "ELEMENT_SET_NO": 999,
    "REV_AT_EPOCH": 5439,
    "BSTAR": 0.00018819454,
    "MEAN_MOTION_DOT": 0.0000102,
    "MEAN_MOTION_DDOT": 0
   }
  },
  {
   "norad": 39574,
   "name": "GPM-CORE",
   "intl": "2014-009C",
   "group": "resource",
   "gcat": {
    "class": "C",
    "category": "EOSCI",
    "owner": "GSFC",
    "state": "US"
   },
   "omm": {
    "OBJECT_NAME": "GPM-CORE",
    "OBJECT_ID": "2014-009C",
    "EPOCH": "2026-07-04T13:26:12.314400",
    "MEAN_MOTION": 15.44944855,
    "ECCENTRICITY": 0.00112123,
    "INCLINATION": 64.9705,
    "RA_OF_ASC_NODE": 249.9296,
    "ARG_OF_PERICENTER": 258.4363,
    "MEAN_ANOMALY": 101.552,
    "EPHEMERIS_TYPE": 0,
    "CLASSIFICATION_TYPE": "U",
    "NORAD_CAT_ID": 39574,
    "ELEMENT_SET_NO": 999,
    "REV_AT_EPOCH": 70049,
    "BSTAR": 0.00040400287,
    "MEAN_MOTION_DOT": 0.00018961,
    "MEAN_MOTION_DDOT": 0
   }
  },
  {
   "norad": 31113,
   "name": "HAIYANG-1B",
   "intl": "2007-010A",
   "group": "resource",
   "gcat": {
    "class": null,
    "category": null,
    "owner": null,
    "state": null
   },
   "omm": {
    "OBJECT_NAME": "HAIYANG-1B",
    "OBJECT_ID": "2007-010A",
    "EPOCH": "2026-07-04T04:55:39.194400",
    "MEAN_MOTION": 14.31031222,
    "ECCENTRICITY": 0.00141181,
    "INCLINATION": 98.3505,
    "RA_OF_ASC_NODE": 166.3911,
    "ARG_OF_PERICENTER": 146.3401,
    "MEAN_ANOMALY": 213.8683,
    "EPHEMERIS_TYPE": 0,
    "CLASSIFICATION_TYPE": "U",
    "NORAD_CAT_ID": 31113,
    "ELEMENT_SET_NO": 999,
    "REV_AT_EPOCH": 307,
    "BSTAR": 0.000058815291,
    "MEAN_MOTION_DOT": 0.00000113,
    "MEAN_MOTION_DDOT": 0
   }
  },
  {
   "norad": 37781,
   "name": "HAIYANG-2A",
   "intl": "2011-043A",
   "group": "resource",
   "gcat": {
    "class": null,
    "category": null,
    "owner": null,
    "state": null
   },
   "omm": {
    "OBJECT_NAME": "HAIYANG-2A",
    "OBJECT_ID": "2011-043A",
    "EPOCH": "2026-07-04T14:03:59.937696",
    "MEAN_MOTION": 13.73780507,
    "ECCENTRICITY": 0.00041834,
    "INCLINATION": 99.3394,
    "RA_OF_ASC_NODE": 187.8696,
    "ARG_OF_PERICENTER": 57.8163,
    "MEAN_ANOMALY": 302.3391,
    "EPHEMERIS_TYPE": 0,
    "CLASSIFICATION_TYPE": "U",
    "NORAD_CAT_ID": 37781,
    "ELEMENT_SET_NO": 999,
    "REV_AT_EPOCH": 74904,
    "BSTAR": -0.000041168359,
    "MEAN_MOTION_DOT": -8.2e-7,
    "MEAN_MOTION_DDOT": 0
   }
  }
 ]
}
